#dP2018  8 26  0  0  0.00000000      96 __u+U ITR00 FIT  IAC
## 2016      0.00000000   900.00000000 58356 0.0000000000000
+   87   C01C02C03C04C05C06C07C08C09C10C11C12C13C14E01E02E03
+        E04E05E07E08E09E11E12E14E18E19E24E26E30G01G02G03G04
+        G05G06G07G08G09G10G11G12G13G14G15G16G17G18G19G20G21
+        G22G23G24G25G26G27G28G29G30G31G32J01J02J03R01R02R03
+        R04R07R08R09R10R11R13R14R15R16R17R18R19R20R21R22R23
+        R24R26  0  0  0  0  0  0  0  0  0  0  0  0  0  0  0
++         0  0  0  0  0  0  0  0  0  0  0  0  0  0  0  0  0
++         0  0  0  0  0  0  0  0  0  0  0  0  0  0  0  0  0
++         0  0  0  0  0  0  0  0  0  0  0  0  0  0  0  0  0
++         0  0  0  0  0  0  0  0  0  0  0  0  0  0  0  0  0
++         0  0  0  0  0  0  0  0  0  0  0  0  0  0  0  0  0
++         0  0  0  0  0  0  0  0  0  0  0  0  0  0  0  0  0
%c M  cc GPS ccc cccc cccc cccc cccc ccccc ccccc ccccc ccccc
%c cc cc ccc ccc cccc cccc cccc cccc ccccc ccccc ccccc ccccc
%f  0.0000000  0.000000000  0.00000000000  0.000000000000000
%f  0.0000000  0.000000000  0.00000000000  0.000000000000000
%i    0    0    0    0      0      0      0      0         0
%i    0    0    0    0      0      0      0      0         0
/*                                                          
/*   RSA / INFORMATION & ANALYSIS CENTER (IAC) OF MCC       
/*   ULTRA-RAPID DETERMINATION                              
/* PCV:IGS14_2000 OL/AL:FES2004  NONE     YN ORB:CoN CLK:CoN
*  2018 08 26 23  0  0.00000000
PC01 -32252.696136  27126.567944   1072.423670    521.511323
PC02   4358.371809  41938.076442   -907.379272   -131.217568
PC03 -14754.580890  39493.077875    737.954701   -356.203719
PC04 -39623.302718  14422.862327    648.162817   -133.762737
PC05  21866.601586  36030.589163   -836.810106    -78.052801
PC06  -6658.864597  26922.367179 -31363.128303    252.419470
PC07 -22289.086354  25338.385025  25131.952395      6.206331
PC08 -17201.963069  37998.848924   7107.383916    500.552841
PC09   5358.375839  34106.012282 -23804.804177     60.494021
PC10  -7451.581123  26882.082831  31659.554501    -23.049327
PC11   3193.940895  27624.203064   2858.616249   -652.895224
PC12  -9115.722827  18551.723993  18845.251910    578.094872
PC13  -8282.168092  40950.403200  -6635.043961   -246.547307
PC14   3567.304863  17200.311547 -21614.516385    276.403081
PE01 -23304.652520  15350.027719   9856.614270   -421.433713
PE02  23297.218588 -15360.338228  -9874.134880     25.073530
PE03  13429.157206 -10977.962145  23993.190601    -70.155517
PE04   5512.311202  22152.010405 -18835.020108   -104.510508
PE05  24570.325902   6675.036858  15105.160383    204.505162
PE07 -21299.398937 -20382.936041   2611.173607    -27.157682
PE08  -5784.738847 -22016.949908  18921.548300   6515.373697
PE09  21509.132819  20177.738466  -2615.077590   6694.610365
PE11  10360.933524  19258.606174 -19952.231634   4217.896071
PE12  -2519.155232  29280.469030  -3480.256585   4915.888531
PE14 -15056.309436   2388.870470  17944.322722   6529.175727
PE18  18601.758248  -9128.380271 -25071.755945   5953.130096
PE19 -14866.549350   9359.221716 -23816.416981    -12.825061
PE24  16278.514314   9944.051067  22627.666797   6525.993624
PE26 -16902.999259   1540.609420  24246.951967   5548.269637
PE30   4986.052709 -17897.205825 -23047.028112   5563.466250
PG01 -13472.311804  22641.821002  -1756.009266    -80.908035
PG02  18467.605515  -9561.016228 -15825.213401     16.338295
PG03 -10918.186645  13465.479437 -20134.185020    127.498900
PG04 -23366.382035  -8602.982857  -9890.100398 999999.999999
PG05  25852.505529  -3219.747026   5612.973518     -2.698064
PG06  13130.005735   7229.280610 -21899.508917    371.480027
PG07  -1587.540108  21591.027787  15300.777479    134.890171
PG08 -10981.748111  10941.989360  21591.212621   -113.023982
PG09   5595.648472  24370.668071  -8969.106350    509.466686
PG10 -19242.688266 -11203.082723  14647.815683    185.183730
PG11  -9494.117714  23562.463715   7516.436938   -722.270693
PG12  16631.742831 -10140.631871 -18165.005375    311.307679
PG13  15073.293567  -2160.478728  21655.484555    -90.306331
PG14 -17033.623704 -13393.551427 -15172.611794    -97.523635
PG15   8033.461336 -15259.544952  19883.337744   -347.526009
PG16 -26379.944723   -665.135774   4436.107779     11.835185
PG17  14598.847364  20924.903698  -7209.852863    -62.815327
PG18 -16929.674399  18962.457952   6920.655597     50.195573
PG19  16751.055594  12950.371372 -16245.296182   -408.278916
PG20 -10180.810262 -14264.906422  19862.544791    514.813441
PG21  -3137.408327 -20207.413321  17771.097950   -346.574149
PG22 -18565.991676  11395.836372 -14941.714580   -501.088547
PG23  -2676.411834  20322.655099 -16359.110175   -212.073977
PG24  15011.669408 -21525.893197   2733.590582    -54.513323
PG25    963.707728 -14987.515969 -22086.389131   -637.667300
PG26 -25500.509663  -4991.734524  -5852.220207    -39.340661
PG27 -16436.797079  -1331.884627  20794.480907    350.639865
PG28  15855.139125  13616.166463  16980.443143    740.730819
PG29  -3220.394784 -24351.689099 -10130.964412    388.427428
PG30   7329.429840  15221.441228  20475.479332     32.401138
PG31 -14762.369723  -5032.185881 -21509.603950     97.888456
PG32 -16330.991796 -19459.727008  -7867.849732   -441.082195
PJ01 -26795.123714  19203.543506 -21627.367205   -127.437865
PJ02 -30278.615413  29440.989260   5537.240381     -6.702990
PJ03 -25015.668713  24158.625803  28917.798418     -1.183186
PR01   -159.707108  12231.737711 -22382.209419     31.097979
PR02  17629.432611  15428.221073  -9993.076370    326.668063
PR03  22746.180346   8680.983177   7581.363974    141.602732
PR04  14223.594400  -3422.186752  20909.149090    273.904673
PR07 -22719.125208  -8524.246535  -7885.900167    -45.697497
PR08 -14780.507210   2883.654208 -20536.895793     21.608859
PR09  -7924.359492  -8165.939784 -22807.571677     25.241022
PR10 -20161.094106   3482.842683 -15187.167373     30.486918
PR11 -21423.049857  13626.715955   2163.559323    -38.944278
PR13   7636.509308   7995.406835  22975.874011    -13.983025
PR14  20239.533664  -3430.446543  15172.916623     30.430882
PR15  22488.702546 -11716.480937   2287.443902    -15.325284
PR16  10404.380663 -15823.536167 -17048.802121    100.243938
PR17  10401.802042   6086.651923 -22485.093392    159.253242
PR18   9169.464312 -12594.619498 -20208.770014    208.280337
PR19   3413.978946 -24372.600578  -6702.202240    -58.579222
PR20  -5093.642541 -21880.857933  12121.961340   -350.080656
PR21 -10371.378845  -5559.773951  22621.173315     -0.066227
PR22  -8641.922837  14491.650321  19078.479576    -60.225949
PR23  -1078.642543  25366.369073   2470.066953    174.425859
PR24   5982.488154  21045.332999 -13137.816202   -170.593960
PR26  -5073.373259 -22412.944948  11047.986188 999999.999999
EOF
